GLOBALSTAR M094         
1 39074U 13005C   25039.89864566 -.00000091  00000+0  71413-4 0  9993
2 39074  51.9932 212.7174 0000954  74.3078 285.7894 12.62268215556177
GLOBALSTAR M096         
1 39075U 13005D   25040.07025940 -.00000068  00000+0  20047-3 0  9991
2 39075  52.0055 260.6125 0000853  57.9555 302.1394 12.62268159555466
GLOBALSTAR M078         
1 39076U 13005E   25039.25134170  .00000030  00000+0  74882-3 0  9990
2 39076  51.9899 347.7837 0000503 260.0817  99.9993 12.62271790553636
GLOBALSTAR M095         
1 39077U 13005F   25039.91168853 -.00000090  00000+0  78592-4 0  9999
2 39077  51.9826 343.0371 0000438 347.2554  12.8302 12.62266013553575
GLOBALSTAR M087         
1 52888U 22064A   25040.17996545 -.00000106  00000+0 -11257-4 0  9990
2 52888  51.9790 123.6263 0000545 118.5423 241.5499 12.62268435129202
